{"type": "FeatureCollection", "features": [ {"type": "Feature", "properties": {"norad_id": 67123, "name": "STARLINK-36151", "group": "last-30-days", "lat": -31.752199190228247, "lon": -175.2799794491784, "alt_km": 345.7176662357342, "timestamp": "2025-12-27T11:23:18.582802+00:00", "meta": {"OBJECT_NAME": "STARLINK-36151", "OBJECT_ID": "2025-299X", "EPOCH": "2025-12-27T04:00:01.998720", "MEAN_MOTION": 15.7648807, "ECCENTRICITY": 0.0001683, "INCLINATION": 42.9988, "RA_OF_ASC_NODE": 228.2092, "ARG_OF_PERICENTER": 269.1293, "MEAN_ANOMALY": 91.8739, "EPHEMERIS_TYPE": 0, "CLASSIFICATION_TYPE": "U", "NORAD_CAT_ID": 67123, "ELEMENT_SET_NO": 999, "REV_AT_EPOCH": 312, "BSTAR": -0.012345, "MEAN_MOTION_DOT": -0.01776908, "MEAN_MOTION_DDOT": 0}, "tle": {"line1": "1 67123U 25299X   25361.16668980 -.01776908  00000+0 -12345-1 0  9992", "line2": "2 67123  42.9988 228.2092 0001683 269.1293  91.8739 15.76488070  3125"}}, "geometry": {"type": "Point", "coordinates": [-175.2799794491784, -31.752199190228247]}}, {"type": "Feature", "properties": {"norad_id": 67124, "name": "STARLINK-36195", "group": "last-30-days", "lat": -29.033274354147075, "lon": -170.2368049019685, "alt_km": 345.4511745515347, "timestamp": "2025-12-27T11:23:18.582812+00:00", "meta": {"OBJECT_NAME": "STARLINK-36195", "OBJECT_ID": "2025-299Y", "EPOCH": "2025-12-27T04:00:01.998720", "MEAN_MOTION": 15.76513128, "ECCENTRICITY": 0.0001865, "INCLINATION": 42.9987, "RA_OF_ASC_NODE": 228.1962, "ARG_OF_PERICENTER": 269.4835, "MEAN_ANOMALY": 96.6324, "EPHEMERIS_TYPE": 0, "CLASSIFICATION_TYPE": "U", "NORAD_CAT_ID": 67124, "ELEMENT_SET_NO": 999, "REV_AT_EPOCH": 312, "BSTAR": -0.012314, "MEAN_MOTION_DOT": -0.0177489, "MEAN_MOTION_DDOT": 0}, "tle": {"line1": "1 67124U 25299Y   25361.16668980 -.01774890  00000+0 -12314-1 0  9997", "line2": "2 67124  42.9987 228.1962 0001865 269.4835  96.6324 15.76513128  3123"}}, "geometry": {"type": "Point", "coordinates": [-170.2368049019685, -29.033274354147075]}}, {"type": "Feature", "properties": {"norad_id": 67125, "name": "STARLINK-36219", "group": "last-30-days", "lat": -28.11650617378449, "lon": -168.66875730588671, "alt_km": 345.322081681682, "timestamp": "2025-12-27T11:23:18.582822+00:00", "meta": {"OBJECT_NAME": "STARLINK-36219", "OBJECT_ID": "2025-299Z", "EPOCH": "2025-12-27T04:00:01.998720", "MEAN_MOTION": 15.76518824, "ECCENTRICITY": 0.0001807, "INCLINATION": 42.9985, "RA_OF_ASC_NODE": 228.192, "ARG_OF_PERICENTER": 274.361, "MEAN_ANOMALY": 93.4052, "EPHEMERIS_TYPE": 0, "CLASSIFICATION_TYPE": "U", "NORAD_CAT_ID": 67125, "ELEMENT_SET_NO": 999, "REV_AT_EPOCH": 312, "BSTAR": -0.012235, "MEAN_MOTION_DOT": -0.01765145, "MEAN_MOTION_DDOT": 0}, "tle": {"line1": "1 67125U 25299Z   25361.16668980 -.01765145  00000+0 -12235-1 0  9993", "line2": "2 67125  42.9985 228.1920 0001807 274.3610  93.4052 15.76518824  3129"}}, "geometry": {"type": "Point", "coordinates": [-168.66875730588671, -28.11650617378449]}}, {"type": "Feature", "properties": {"norad_id": 67126, "name": "STARLINK-36223", "group": "last-30-days", "lat": -27.060431509005813, "lon": -166.93073622609253, "alt_km": 345.3238508933855, "timestamp": "2025-12-27T11:23:18.582834+00:00", "meta": {"OBJECT_NAME": "STARLINK-36223", "OBJECT_ID": "2025-299AA", "EPOCH": "2025-12-27T04:00:01.998720", "MEAN_MOTION": 15.76518037, "ECCENTRICITY": 0.0001876, "INCLINATION": 42.9986, "RA_OF_ASC_NODE": 228.1869, "ARG_OF_PERICENTER": 270.1383, "MEAN_ANOMALY": 99.4987, "EPHEMERIS_TYPE": 0, "CLASSIFICATION_TYPE": "U", "NORAD_CAT_ID": 67126, "ELEMENT_SET_NO": 999, "REV_AT_EPOCH": 312, "BSTAR": -0.012221, "MEAN_MOTION_DOT": -0.01763396, "MEAN_MOTION_DDOT": 0}, "tle": {"line1": "1 67126U 25299AA  25361.16668980 -.01763396  00000+0 -12221-1 0  9995", "line2": "2 67126  42.9986 228.1869 0001876 270.1383  99.4987 15.76518037  3129"}}, "geometry": {"type": "Point", "coordinates": [-166.93073622609253, -27.060431509005813]}}, {"type": "Feature", "properties": {"norad_id": 67127, "name": "STARLINK-36164", "group": "last-30-days", "lat": -26.052961451361334, "lon": -165.33350629784658, "alt_km": 345.250655726255, "timestamp": "2025-12-27T11:23:18.582844+00:00", "meta": {"OBJECT_NAME": "STARLINK-36164", "OBJECT_ID": "2025-299AB", "EPOCH": "2025-12-27T04:00:01.998720", "MEAN_MOTION": 15.76528482, "ECCENTRICITY": 0.0001859, "INCLINATION": 42.9987, "RA_OF_ASC_NODE": 228.1826, "ARG_OF_PERICENTER": 271.0745, "MEAN_ANOMALY": 100.3052, "EPHEMERIS_TYPE": 0, "CLASSIFICATION_TYPE": "U", "NORAD_CAT_ID": 67127, "ELEMENT_SET_NO": 999, "REV_AT_EPOCH": 312, "BSTAR": -0.01224, "MEAN_MOTION_DOT": -0.01766575, "MEAN_MOTION_DDOT": 0}, "tle": {"line1": "1 67127U 25299AB  25361.16668980 -.01766575  00000+0 -12240-1 0  9999", "line2": "2 67127  42.9987 228.1826 0001859 271.0745 100.3052 15.76528482  3127"}}, "geometry": {"type": "Point", "coordinates": [-165.33350629784658, -26.052961451361334]}}, {"type": "Feature", "properties": {"norad_id": 67128, "name": "STARLINK-35685", "group": "last-30-days", "lat": -23.41066272984043, "lon": -161.38747428358442, "alt_km": 345.1249477645342, "timestamp": "2025-12-27T11:23:18.582856+00:00", "meta": {"OBJECT_NAME": "STARLINK-35685", "OBJECT_ID": "2025-299AC", "EPOCH": "2025-12-27T04:00:01.998720", "MEAN_MOTION": 15.76498176, "ECCENTRICITY": 0.0001818, "INCLINATION": 42.9986, "RA_OF_ASC_NODE": 228.1708, "ARG_OF_PERICENTER": 276.6351, "MEAN_ANOMALY": 99.2433, "EPHEMERIS_TYPE": 0, "CLASSIFICATION_TYPE": "U", "NORAD_CAT_ID": 67128, "ELEMENT_SET_NO": 999, "REV_AT_EPOCH": 313, "BSTAR": -0.012244, "MEAN_MOTION_DOT": -0.01764901, "MEAN_MOTION_DDOT": 0}, "tle": {"line1": "1 67128U 25299AC  25361.16668980 -.01764901  00000+0 -12244-1 0  9995", "line2": "2 67128  42.9986 228.1708 0001818 276.6351  99.2433 15.76498176  3131"}}, "geometry": {"type": "Point", "coordinates": [-161.38747428358442, -23.41066272984043]}}, {"type": "Feature", "properties": {"norad_id": 67129, "name": "STARLINK-36214", "group": "last-30-days", "lat": -24.912938673394034, "lon": -163.59075047815546, "alt_km": 345.18334883730586, "timestamp": "2025-12-27T11:23:18.582866+00:00", "meta": {"OBJECT_NAME": "STARLINK-36214", "OBJECT_ID": "2025-299AD", "EPOCH": "2025-12-27T04:00:01.998720", "MEAN_MOTION": 15.76531042, "ECCENTRICITY": 0.0001864, "INCLINATION": 42.9986, "RA_OF_ASC_NODE": 228.1779, "ARG_OF_PERICENTER": 272.1968, "MEAN_ANOMALY": 101.1304, "EPHEMERIS_TYPE": 0, "CLASSIFICATION_TYPE": "U", "NORAD_CAT_ID": 67129, "ELEMENT_SET_NO": 999, "REV_AT_EPOCH": 312, "BSTAR": -0.012286, "MEAN_MOTION_DOT": -0.0177259, "MEAN_MOTION_DDOT": 0}, "tle": {"line1": "1 67129U 25299AD  25361.16668980 -.01772590  00000+0 -12286-1 0  9995", "line2": "2 67129  42.9986 228.1779 0001864 272.1968 101.1304 15.76531042  3125"}}, "geometry": {"type": "Point", "coordinates": [-163.59075047815546, -24.912938673394034]}}, {"type": "Feature", "properties": {"norad_id": 67130, "name": "STARLINK-36194", "group": "last-30-days", "lat": -20.95603635827862, "lon": -157.9765016524885, "alt_km": 345.35788805078937, "timestamp": "2025-12-27T11:23:18.582878+00:00", "meta": {"OBJECT_NAME": "STARLINK-36194", "OBJECT_ID": "2025-299AE", "EPOCH": "2025-12-27T04:00:01.998720", "MEAN_MOTION": 15.76414387, "ECCENTRICITY": 0.0001699, "INCLINATION": 42.9985, "RA_OF_ASC_NODE": 228.1627, "ARG_OF_PERICENTER": 274.8132, "MEAN_ANOMALY": 105.1725, "EPHEMERIS_TYPE": 0, "CLASSIFICATION_TYPE": "U", "NORAD_CAT_ID": 67130, "ELEMENT_SET_NO": 999, "REV_AT_EPOCH": 313, "BSTAR": -0.012402, "MEAN_MOTION_DOT": -0.01778878, "MEAN_MOTION_DDOT": 0}, "tle": {"line1": "1 67130U 25299AE  25361.16668980 -.01778878  00000+0 -12402-1 0  9992", "line2": "2 67130  42.9985 228.1627 0001699 274.8132 105.1725 15.76414387  3130"}}, "geometry": {"type": "Point", "coordinates": [-157.9765016524885, -20.95603635827862]}}, {"type": "Feature", "properties": {"norad_id": 67131, "name": "ZIYUAN 3-04 (ZY 3-04)", "group": "last-30-days", "lat": -74.105830902905, "lon": 103.03796203735587, "alt_km": 510.8592746521781, "timestamp": "2025-12-27T11:23:18.582890+00:00", "meta": {"OBJECT_NAME": "ZIYUAN 3-04 (ZY 3-04)", "OBJECT_ID": "2025-300A", "EPOCH": "2025-12-27T02:15:00.635904", "MEAN_MOTION": 15.21251311, "ECCENTRICITY": 0.0003125, "INCLINATION": 97.4921, "RA_OF_ASC_NODE": 75.1314, "ARG_OF_PERICENTER": 152.4137, "MEAN_ANOMALY": 207.7264, "EPHEMERIS_TYPE": 0, "CLASSIFICATION_TYPE": "U", "NORAD_CAT_ID": 67131, "ELEMENT_SET_NO": 999, "REV_AT_EPOCH": 167, "BSTAR": 9.4249e-05, "MEAN_MOTION_DOT": 2.035e-05, "MEAN_MOTION_DDOT": 0}, "tle": {"line1": "1 67131U 25300A   25361.09375736  .00002035  00000+0  94249-4 0  9996", "line2": "2 67131  97.4921  75.1314 0003125 152.4137 207.7264 15.21251311  1671"}}, "geometry": {"type": "Point", "coordinates": [103.03796203735587, -74.105830902905]}}, {"type": "Feature", "properties": {"norad_id": 67132, "name": "CZ-4B R/B", "group": "last-30-days", "lat": -13.369520735300588, "lon": -105.41623431776584, "alt_km": 471.6212170272174, "timestamp": "2025-12-27T11:23:18.582900+00:00", "meta": {"OBJECT_NAME": "CZ-4B R/B", "OBJECT_ID": "2025-300B", "EPOCH": "2025-12-18T16:13:04.609056", "MEAN_MOTION": 15.63831828, "ECCENTRICITY": 0.01741973, "INCLINATION": 97.5563, "RA_OF_ASC_NODE": 66.966, "ARG_OF_PERICENTER": 9.3582, "MEAN_ANOMALY": 351.0851, "EPHEMERIS_TYPE": 0, "CLASSIFICATION_TYPE": "U", "NORAD_CAT_ID": 67132, "ELEMENT_SET_NO": 999, "REV_AT_EPOCH": 40, "BSTAR": 0.00019566238, "MEAN_MOTION_DOT": 0.00040543, "MEAN_MOTION_DDOT": 2.652968e-06}, "tle": {"line1": "1 67132U 25300B   25352.67574779  .00040543  26530-5  19566-3 0  9995", "line2": "2 67132  97.5563  66.9660 0174197   9.3582 351.0851 15.63831828   407"}}, "geometry": {"type": "Point", "coordinates": [-105.41623431776584, -13.369520735300588]}}]}